[{"OBJECT_NAME":"STARLINK-32853","OBJECT_ID":"2025-018N","EPOCH":"2026-03-09T21:29:10.648896","MEAN_MOTION":15.30216581,"ECCENTRICITY":0.00010115,"INCLINATION":53.1589,"RA_OF_ASC_NODE":308.3713,"ARG_OF_PERICENTER":95.0655,"MEAN_ANOMALY":265.0461,"EPHEMERIS_TYPE":0,"CLASSIFICATION_TYPE":"U","NORAD_CAT_ID":62818,"ELEMENT_SET_NO":999,"REV_AT_EPOCH":6321,"BSTAR":0.0010161491,"MEAN_MOTION_DOT":0.00029873,"MEAN_MOTION_DDOT":0},{"OBJECT_NAME":"SL-3 R\/B","OBJECT_ID":"1982-079B","EPOCH":"2026-03-09T22:18:18.158976","MEAN_MOTION":15.24805533,"ECCENTRICITY":0.00250364,"INCLINATION":81.1481,"RA_OF_ASC_NODE":192.7939,"ARG_OF_PERICENTER":164.0597,"MEAN_ANOMALY":196.143,"EPHEMERIS_TYPE":0,"CLASSIFICATION_TYPE":"U","NORAD_CAT_ID":13403,"ELEMENT_SET_NO":999,"REV_AT_EPOCH":37773,"BSTAR":0.00032485557,"MEAN_MOTION_DOT":8.157e-5,"MEAN_MOTION_DDOT":0}]
